QIANFAN-81              
1 63167U 25046J   25217.61732648  .00000146  00000+0  20744-3 0  9994
2 63167  88.9861 333.1780 0016497 131.1492 229.1086 13.50961170 30057
QIANFAN-82              
1 63168U 25046K   25217.57604163  .00000149  00000+0  21241-3 0  9996
2 63168  88.9861 333.2257 0014521 137.8629 222.3641 13.50957973 30035
QIANFAN-83              
1 63169U 25046L   25217.61580272  .00000176  00000+0  21225-3 0  9998
2 63169  88.9861 333.2508 0015929 131.0733 229.1804 13.61932243 30020
QIANFAN-84              
1 63170U 25046M   25217.60489482  .00000151  00000+0  21498-3 0  9995
2 63170  88.9861 333.3558 0017541 135.2304 225.0266 13.50964954 29960
QIANFAN-85              
1 63171U 25046N   25217.60084896  .00000144  00000+0  20436-3 0  9999
2 63171  88.9860 333.2285 0014880 136.9511 223.2807 13.50959063 30033
QIANFAN-86              
1 63172U 25046P   25217.60907622  .00000149  00000+0  21138-3 0  9996
2 63172  88.9863 333.0868 0012699 140.0053 220.2036 13.50959383 30110
QIANFAN-87              
1 63173U 25046Q   25217.58016743  .00000147  00000+0  20858-3 0  9995
2 63173  88.9859 333.2063 0013488 135.8345 224.3886 13.50957246 30044
QIANFAN-88              
1 63174U 25046R   25217.59681266  .00000141  00000+0  20033-3 0  9994
2 63174  88.9862 333.1560 0013724 143.0236 217.1864 13.50963539 30074
